NORAD_CAT_ID,OBJECT_NAME,OBJECT_TYPE,EPOCH,MEAN_MOTION,ECCENTRICITY,INCLINATION,RA_OF_ASC_NODE,ARG_OF_PERICENTER,MEAN_ANOMALY,BSTAR,MEAN_MOTION_DOT,MEAN_MOTION_DDOT,TLE_LINE0,TLE_LINE1,TLE_LINE2,SEMIMAJOR_AXIS,PERIOD,APOGEE,PERIGEE,DECAYED
49756.0,STARLINK-3207,PAYLOAD,2023-08-22 11:27:58,15.08848503,7.38e-05,53.2179,355.0032,84.8413,275.2664,2.7428e-05,1.49e-06,0.0,0 STARLINK-3207,1 49756U 21115AJ  23234.47775882  .00000149  00000-0  27428-4 0  9994,2 49756  53.2179 355.0032 0000738  84.8413 275.2664 15.08848503 96351,6917.854,95.437,540.23,539.209,0.0
49756.0,STARLINK-3207,PAYLOAD,2023-08-23 12:54:08,15.08839298,7.82e-05,53.2179,350.2455,82.7882,277.3199,7.7708e-05,9.49e-06,0.0,0 STARLINK-3207,1 49756U 21115AJ  23235.53760161  .00000949  00000-0  77708-4 0  9990,2 49756  53.2179 350.2455 0000782  82.7882 277.3199 15.08839298 96518,6917.883,95.438,540.289,539.207,0.0
49756.0,STARLINK-3207,PAYLOAD,2023-08-24 11:09:32,15.08838663,8.26e-05,53.2179,346.0824,90.3925,269.7162,4.7088e-05,4.62e-06,0.0,0 STARLINK-3207,1 49756U 21115AJ  23236.46496328  .00000462  00000-0  47088-4 0  9992,2 49756  53.2179 346.0824 0000826  90.3925 269.7162 15.08838663 95545,6917.884,95.438,540.321,539.178,0.0
49756.0,STARLINK-3207,PAYLOAD,2023-08-25 11:00:19,15.08837843,8.42e-05,53.2181,341.622,90.7467,269.3622,5.3679e-05,5.67e-06,0.0,0 STARLINK-3207,1 49756U 21115AJ  23237.45856462  .00000567  00000-0  53679-4 0  9990,2 49756  53.2181 341.6220 0000842  90.7467 269.3622 15.08837843 96808,6917.887,95.438,540.334,539.169,0.0
49756.0,STARLINK-3207,PAYLOAD,2023-08-25 12:35:43,15.08838989,8.45e-05,53.2181,341.3245,90.4596,269.6493,6.156e-05,6.92e-06,0.0,0 STARLINK-3207,1 49756U 21115AJ  23237.52480384  .00000692  00000-0  61560-4 0  9991,2 49756  53.2181 341.3245 0000845  90.4596 269.6493 15.08838989 95704,6917.883,95.438,540.333,539.164,0.0
49756.0,STARLINK-3207,PAYLOAD,2023-08-26 12:26:30,15.08843909,8.58e-05,53.2174,336.8645,95.5666,264.5424,-2.7826e-06,-3.32e-06,0.0,0 STARLINK-3207,1 49756U 21115AJ  23238.51840510 -.00000332  00000-0 -27826-5 0  9993,2 49756  53.2174 336.8645 0000858  95.5666 264.5424 15.08843909 95859,6917.868,95.437,540.327,539.14,0.0
49756.0,STARLINK-3207,PAYLOAD,2023-08-27 07:31:07,15.08840791,9.13e-05,53.2176,333.2958,95.62,264.4896,8.4799e-05,1.062e-05,0.0,0 STARLINK-3207,1 49756U 21115AJ  23239.31328517  .00001062  00000-0  84799-4 0  9990,2 49756  53.2176 333.2958 0000913  95.6200 264.4896 15.08840791 95977,6917.878,95.438,540.375,539.111,0.0
49756.0,STARLINK-3207,PAYLOAD,2023-08-27 13:52:40,15.08843894,0.0001025,53.2178,332.1067,81.3309,278.7799,0.00012304,1.671e-05,0.0,0 STARLINK-3207,1 49756U 21115AJ  23239.57824281  .00001671  00000-0  12304-3 0  9995,2 49756  53.2178 332.1067 0001025  81.3309 278.7799 15.08843894 97121,6917.868,95.437,540.443,539.024,0.0
49756.0,STARLINK-3207,PAYLOAD,2023-08-28 05:46:32,15.08837297,9.47e-05,53.2186,329.1332,95.2343,264.8757,2.3832e-05,9.2e-07,0.0,0 STARLINK-3207,1 49756U 21115AJ  23240.24065025  .00000092  00000-0  23832-4 0  9999,2 49756  53.2186 329.1332 0000947  95.2343 264.8757 15.08837297 97226,6917.889,95.438,540.409,539.099,0.0
49756.0,STARLINK-3207,PAYLOAD,2023-08-28 15:18:50,15.08846365,0.0001032,53.2181,327.3491,73.7221,286.3885,8.7721e-05,1.109e-05,0.0,0 STARLINK-3207,1 49756U 21115AJ  23240.63808315  .00001109  00000-0  87721-4 0  9996,2 49756  53.2181 327.3491 0001032  73.7221 286.3885 15.08846365 97282,6917.861,95.437,540.44,539.012,0.0
49756.0,STARLINK-3207,PAYLOAD,2023-08-28 23:15:46,15.08839966,0.0001063,53.218,325.8614,77.7293,282.3818,5.0088e-05,5.09e-06,0.0,0 STARLINK-3207,1 49756U 21115AJ  23240.96928788  .00000509  00000-0  50088-4 0  9998,2 49756  53.2180 325.8614 0001063  77.7293 282.3818 15.08839966 97335,6917.88,95.438,540.481,539.01,0.0
49756.0,STARLINK-3207,PAYLOAD,2023-08-29 11:58:51,15.08846384,0.0001121,53.2178,323.4832,76.8931,283.2186,5.5481e-05,5.95e-06,0.0,0 STARLINK-3207,1 49756U 21115AJ  23241.49920338  .00000595  00000-0  55481-4 0  9997,2 49756  53.2178 323.4832 0001121  76.8931 283.2186 15.08846384 96308,6917.861,95.437,540.501,538.95,0.0
49756.0,STARLINK-3207,PAYLOAD,2023-08-30 08:38:52,15.08834961,0.0001122,53.2168,319.6172,91.879,268.2331,3.6763e-05,2.97e-06,0.0,0 STARLINK-3207,1 49756U 21115AJ  23242.36033055  .00000297  00000-0  36763-4 0  9996,2 49756  53.2168 319.6172 0001122  91.8790 268.2331 15.08834961 97542,6917.896,95.438,540.537,538.985,0.0
49756.0,STARLINK-3207,PAYLOAD,2023-08-30 11:49:38,15.08836434,0.0001148,53.2173,319.0226,93.6576,266.4548,4.4496e-05,4.2e-06,0.0,0 STARLINK-3207,1 49756U 21115AJ  23242.49280969  .00000420  00000-0  44496-4 0  9998,2 49756  53.2173 319.0226 0001148  93.6576 266.4548 15.08836434 96458,6917.891,95.438,540.55,538.962,0.0
49756.0,STARLINK-3207,PAYLOAD,2023-08-31 05:18:53,15.0883766,0.0001069,53.2175,315.7518,92.5152,267.5962,3.4385e-05,2.59e-06,0.0,0 STARLINK-3207,1 49756U 21115AJ  23243.22144969  .00000259  00000-0  34385-4 0  9995,2 49756  53.2175 315.7518 0001069  92.5152 267.5962 15.08837660 96563,6917.888,95.438,540.492,539.013,0.0
49756.0,STARLINK-3207,PAYLOAD,2023-09-01 11:31:13,15.08818536,3.27e-05,53.2182,310.1031,97.6596,262.4433,0.00040786,6.206e-05,0.0,0 STARLINK-3207,1 49756U 21115AJ  23244.48001443  .00006206  00000-0  40786-3 0  9992,2 49756  53.2182 310.1031 0000327  97.6596 262.4433 15.08818536 97866,6917.946,95.439,540.037,539.585,0.0
49756.0,STARLINK-3207,PAYLOAD,2023-09-01 21:03:31,15.08845837,9.77e-05,53.2173,308.3181,85.6498,274.4606,6.0405e-05,6.74e-06,0.0,0 STARLINK-3207,1 49756U 21115AJ  23244.87744467  .00000674  00000-0  60405-4 0  9999,2 49756  53.2173 308.3181 0000977  85.6498 274.4606 15.08845837 96813,6917.863,95.437,540.403,539.052,0.0
49756.0,STARLINK-3207,PAYLOAD,2023-09-02 11:21:59,15.08840191,0.0001253,53.2201,305.6426,90.7529,269.3607,6.6776e-05,7.75e-06,0.0,0 STARLINK-3207,1 49756U 21115AJ  23245.47361018  .00000775  00000-0  66776-4 0  9992,2 49756  53.2201 305.6426 0001253  90.7529 269.3607 15.08840191 98013,6917.88,95.438,540.612,538.878,0.0
49756.0,STARLINK-3207,PAYLOAD,2023-09-02 20:54:18,15.08847544,0.0001231,53.2177,303.8568,84.9354,275.1779,-6.1813e-05,-1.272e-05,0.0,0 STARLINK-3207,1 49756U 21115AJ  23245.87105157 -.00001272  00000-0 -61813-4 0  9998,2 49756  53.2177 303.8568 0001231  84.9354 275.1779 15.08847544 96965,6917.857,95.437,540.574,538.871,0.0
49756.0,STARLINK-3207,PAYLOAD,2023-09-03 09:37:23,15.08866147,0.0001185,53.2165,301.4779,84.7135,275.3992,-0.00026174,-4.454e-05,0.0,0 STARLINK-3207,1 49756U 21115AJ  23246.40096195 -.00004454  00000-0 -26174-3 0  9994,2 49756  53.2165 301.4779 0001185  84.7135 275.3992 15.08866147 97042,6917.8,95.436,540.485,538.846,0.0
49756.0,STARLINK-3207,PAYLOAD,2023-09-03 15:58:55,15.0884394,0.0001318,53.2167,300.2882,88.8786,271.2357,0.00020705,3.009e-05,0.0,0 STARLINK-3207,1 49756U 21115AJ  23246.66592368  .00003009  00000-0  20705-3 0  9992,2 49756  53.2167 300.2882 0001318  88.8786 271.2357 15.08843940 98194,6917.868,95.437,540.645,538.822,0.0
49756.0,STARLINK-3207,PAYLOAD,2023-09-04 03:06:39,15.08829251,0.0002034,53.2164,298.2069,72.9359,287.1856,-7.1589e-06,-4.02e-06,0.0,0 STARLINK-3207,1 49756U 21115AJ  23247.12962186 -.00000402  00000-0 -71589-5 0  9997,2 49756  53.2164 298.2069 0002034  72.9359 287.1856 15.08829251 98267,6917.913,95.438,541.185,538.371,0.0
49756.0,STARLINK-3207,PAYLOAD,2023-09-05 02:57:26,15.08836388,0.0001225,53.2166,293.7465,83.206,276.9071,5.9999e-05,6.67e-06,0.0,0 STARLINK-3207,1 49756U 21115AJ  23248.12321848  .00000667  00000-0  59999-4 0  9993,2 49756  53.2166 293.7465 0001225  83.2060 276.9071 15.08836388 98415,6917.891,95.438,540.604,538.909,0.0
49756.0,STARLINK-3207,PAYLOAD,2023-09-05 12:29:44,15.08847565,0.0001252,53.2167,291.9616,103.1945,256.9187,4.5429e-05,4.35e-06,0.0,0 STARLINK-3207,1 49756U 21115AJ  23248.52065091  .00000435  00000-0  45429-4 0  9998,2 49756  53.2167 291.9616 0001252 103.1945 256.9187 15.08847565 97366,6917.857,95.437,540.588,538.856,0.0
49756.0,STARLINK-3207,PAYLOAD,2023-09-06 02:48:12,15.08835667,0.0001226,53.2162,289.2859,91.4241,268.6892,0.00020334,2.949e-05,0.0,0 STARLINK-3207,1 49756U 21115AJ  23249.11681544  .00002949  00000-0  20334-3 0  9990,2 49756  53.2162 289.2859 0001226  91.4241 268.6892 15.08835667 98565,6917.894,95.438,540.607,538.91,0.0
49756.0,STARLINK-3207,PAYLOAD,2023-09-06 20:17:27,15.08844756,0.0001238,53.2162,286.0152,88.5863,271.5271,0.0001486,2.078e-05,0.0,0 STARLINK-3207,1 49756U 21115AJ  23249.84545255  .00002078  00000-0  14860-3 0  9998,2 49756  53.2162 286.0152 0001238  88.5863 271.5271 15.08844756 97568,6917.866,95.437,540.587,538.874,0.0
49756.0,STARLINK-3207,PAYLOAD,2023-09-07 07:25:09,15.08838281,0.0001386,53.2174,283.9334,104.7961,255.3185,1.5988e-05,-3.3e-07,0.0,0 STARLINK-3207,1 49756U 21115AJ  23250.30913932 -.00000033  00000-0  15988-4 0  9995,2 49756  53.2174 283.9334 0001386 104.7961 255.3185 15.08838281 98744,6917.886,95.438,540.709,538.792,0.0
49756.0,STARLINK-3207,PAYLOAD,2023-09-07 12:11:18,15.08840683,0.0001447,53.2175,283.0405,104.8366,255.2787,1.3134e-05,-7.9e-07,0.0,0 STARLINK-3207,1 49756U 21115AJ  23250.50785758 -.00000079  00000-0  13134-4 0  9991,2 49756  53.2175 283.0405 0001447 104.8366 255.2787 15.08840683 97669,6917.878,95.438,540.744,538.742,0.0
49756.0,STARLINK-3207,PAYLOAD,2023-09-08 07:15:56,15.08841194,0.0001465,53.2172,279.4715,102.3337,257.7819,-6.7523e-06,-3.95e-06,0.0,0 STARLINK-3207,1 49756U 21115AJ  23251.30273782 -.00000395  00000-0 -67523-5 0  9993,2 49756  53.2172 279.4715 0001465 102.3337 257.7819 15.08841194 97784,6917.877,95.437,540.755,538.728,0.0
49756.0,STARLINK-3207,PAYLOAD,2023-09-08 18:23:38,15.08848369,0.0001615,53.2172,277.3882,99.3816,260.7359,-0.0001673,-2.95e-05,0.0,0 STARLINK-3207,1 49756U 21115AJ  23251.76642071 -.00002950  00000-0 -16730-3 0  9995,2 49756  53.2172 277.3882 0001615  99.3816 260.7359 15.08848369 98965,6917.855,95.437,540.837,538.603,0.0
